*******************************************************************************
Ephemeris / WWW_USER Mon Mar 10 14:47:28 2025 Pasadena, USA      / Horizons    
*******************************************************************************
Target body name: (2018 RD5)                      {source: JPL#11}
Center body name: Earth (399)                     {source: DE441}
Center-site name: Gemini South Obs., Cerro Pachon
*******************************************************************************
Start time      : A.D. 2018-Sep-18 22:45:00.0000 UT      
Stop  time      : A.D. 2018-Sep-19 10:28:00.0000 UT      
Step-size       : 1 minutes
*******************************************************************************
Target pole/equ : undefined
Target radii    : undefined                                                    
Center geodetic : 289.2634, -30.2406227, 2.71233  {E-lon(deg),Lat(deg),Alt(km)}
Center cylindric: 289.2634,5517.21435,-3194.81213 {E-lon(deg),Dxy(km),Dz(km)}
Center pole/equ : ITRF93                          {East-longitude positive}
Center radii    : 6378.137, 6378.137, 6356.752 km {Equator_a, b, pole_c}       
Target primary  : Sun
Vis. interferer : MOON (R_eq= 1737.400) km        {source: DE441}
Rel. light bend : Sun                             {source: DE441}
Rel. lght bnd GM: 1.3271E+11 km^3/s^2                                          
Small-body perts: Yes                             {source: SB441-N16}
Atmos refraction: NO (AIRLESS)
RA format       : HMS
Time format     : CAL 
Calendar mode   : Mixed Julian/Gregorian
RTS-only print  : NO       
EOP file        : eop.250307.p250603                                           
EOP coverage    : DATA-BASED 1962-JAN-20 TO 2025-MAR-07. PREDICTS-> 2025-JUN-02
Units conversion: 1 au= 149597870.700 km, c= 299792.458 km/s, 1 day= 86400.0 s 
Table cut-offs 1: Elevation (-90.0deg=NO ),Airmass (>38.000=NO), Daylight (YES)
Table cut-offs 2: Solar elongation (  0.0,180.0=NO ),Local Hour Angle( 0.0=NO )
Table cut-offs 3: RA/DEC angular rate (     0.0=NO )                           
*******************************************************************************
Initial IAU76/J2000 heliocentric ecliptic osculating elements (au, days, deg.):
  EPOCH=  2458378.5 ! 2018-Sep-17.00 (TDB)         Residual RMS= .55339        
   EC= .2891632988519429   QR= 1.009650912138325   TP= 2458360.6433297051      
   OM= 171.0145363394364   W=  163.7983400129293   IN= 8.474307805886117       
  Equivalent ICRF heliocentric cartesian coordinates (au, au/d):
   X= 1.017757009008053E+00  Y=-8.967367621791844E-02  Z=-4.840656937149759E-02
  VX= 3.309922676318766E-03 VY= 1.832358809606965E-02 VZ= 4.854018792897502E-03
Asteroid physical parameters (km, seconds, rotational period in hours):        
   GM= n.a.                RAD= n.a.               ROTPER= n.a.                
   H= 25.9                 G= .150                 B-V= n.a.                   
                           ALBEDO= n.a.            STYP= n.a.                  
*******************************************************************************
 Date__(UT)__HR:MN     R.A._________(ICRF)_________DEC
******************************************************
$$SOE
 2018-Sep-19 04:54  m  02 20 58.930511 -19 16 27.31458
 2018-Sep-19 04:55  m  02 20 59.274757 -19 16 31.63811
 2018-Sep-19 04:56  m  02 20 59.618748 -19 16 35.95952
 2018-Sep-19 04:57  m  02 20 59.962486 -19 16 40.27881
 2018-Sep-19 04:58  m  02 21 00.305972 -19 16 44.59597
 2018-Sep-19 04:59  m  02 21 00.649208 -19 16 48.91101
 2018-Sep-19 05:00  m  02 21 00.992195 -19 16 53.22391
 2018-Sep-19 05:01  m  02 21 01.334934 -19 16 57.53467
 2018-Sep-19 05:02  m  02 21 01.677426 -19 17 01.84330
 2018-Sep-19 05:03  m  02 21 02.019673 -19 17 06.14978
 2018-Sep-19 05:04  m  02 21 02.361676 -19 17 10.45411
 2018-Sep-19 05:05  m  02 21 02.703437 -19 17 14.75629
 2018-Sep-19 05:06  m  02 21 03.044957 -19 17 19.05631
 2018-Sep-19 05:07  m  02 21 03.386237 -19 17 23.35418
 2018-Sep-19 05:08  m  02 21 03.727279 -19 17 27.64988
 2018-Sep-19 05:09  m  02 21 04.068084 -19 17 31.94342
 2018-Sep-19 05:10  m  02 21 04.408653 -19 17 36.23479
 2018-Sep-19 05:11  m  02 21 04.748988 -19 17 40.52399
 2018-Sep-19 05:12  m  02 21 05.089090 -19 17 44.81101
 2018-Sep-19 05:13  m  02 21 05.428960 -19 17 49.09585
 2018-Sep-19 05:14  m  02 21 05.768600 -19 17 53.37851
 2018-Sep-19 05:15  m  02 21 06.108012 -19 17 57.65898
 2018-Sep-19 05:16  m  02 21 06.447196 -19 18 01.93727
 2018-Sep-19 05:17  m  02 21 06.786154 -19 18 06.21336
 2018-Sep-19 05:18  m  02 21 07.124887 -19 18 10.48725
 2018-Sep-19 05:19  m  02 21 07.463398 -19 18 14.75895
 2018-Sep-19 05:20  m  02 21 07.801686 -19 18 19.02845
 2018-Sep-19 05:21  m  02 21 08.139754 -19 18 23.29574
 2018-Sep-19 05:22  m  02 21 08.477603 -19 18 27.56082
 2018-Sep-19 05:23  m  02 21 08.815234 -19 18 31.82369
 2018-Sep-19 05:24  m  02 21 09.152649 -19 18 36.08435
 2018-Sep-19 05:25  m  02 21 09.489850 -19 18 40.34279
 2018-Sep-19 05:26  m  02 21 09.826836 -19 18 44.59901
 2018-Sep-19 05:27  m  02 21 10.163611 -19 18 48.85301
 2018-Sep-19 05:28  m  02 21 10.500176 -19 18 53.10478
 2018-Sep-19 05:29  m  02 21 10.836531 -19 18 57.35432
 2018-Sep-19 05:30  m  02 21 11.172678 -19 19 01.60163
 2018-Sep-19 05:31  m  02 21 11.508619 -19 19 05.84670
 2018-Sep-19 05:32  m  02 21 11.844356 -19 19 10.08954
 2018-Sep-19 05:33  m  02 21 12.179888 -19 19 14.33014
 2018-Sep-19 05:34  m  02 21 12.515219 -19 19 18.56849
 2018-Sep-19 05:35  m  02 21 12.850349 -19 19 22.80459
 2018-Sep-19 05:36  m  02 21 13.185281 -19 19 27.03845
 2018-Sep-19 05:37  m  02 21 13.520014 -19 19 31.27006
 2018-Sep-19 05:38  m  02 21 13.854551 -19 19 35.49941
 2018-Sep-19 05:39  m  02 21 14.188893 -19 19 39.72651
 2018-Sep-19 05:40  m  02 21 14.523042 -19 19 43.95134
 2018-Sep-19 05:41  m  02 21 14.856999 -19 19 48.17392
 2018-Sep-19 05:42  m  02 21 15.190766 -19 19 52.39423
 2018-Sep-19 05:43  m  02 21 15.524343 -19 19 56.61227
 2018-Sep-19 05:44  m  02 21 15.857733 -19 20 00.82804
 2018-Sep-19 05:45  m  02 21 16.190937 -19 20 05.04154
 2018-Sep-19 05:46  m  02 21 16.523956 -19 20 09.25277
 2018-Sep-19 05:47  m  02 21 16.856792 -19 20 13.46172
 2018-Sep-19 05:48  m  02 21 17.189446 -19 20 17.66839
 2018-Sep-19 05:49  m  02 21 17.521920 -19 20 21.87278
 2018-Sep-19 05:50  m  02 21 17.854215 -19 20 26.07489
 2018-Sep-19 05:51  m  02 21 18.186333 -19 20 30.27471
 2018-Sep-19 05:52  m  02 21 18.518275 -19 20 34.47224
 2018-Sep-19 05:53  m  02 21 18.850042 -19 20 38.66748
 2018-Sep-19 05:54  m  02 21 19.181637 -19 20 42.86043
 2018-Sep-19 05:55  m  02 21 19.513060 -19 20 47.05109
 2018-Sep-19 05:56  m  02 21 19.844313 -19 20 51.23944
 2018-Sep-19 05:57  m  02 21 20.175398 -19 20 55.42550
 2018-Sep-19 05:58  m  02 21 20.506316 -19 20 59.60926
 2018-Sep-19 05:59  m  02 21 20.837068 -19 21 03.79071
 2018-Sep-19 06:00  m  02 21 21.167656 -19 21 07.96986
 2018-Sep-19 06:01  m  02 21 21.498082 -19 21 12.14670
 2018-Sep-19 06:02  m  02 21 21.828347 -19 21 16.32123
 2018-Sep-19 06:03  m  02 21 22.158452 -19 21 20.49345
 2018-Sep-19 06:04  m  02 21 22.488399 -19 21 24.66336
 2018-Sep-19 06:05  m  02 21 22.818189 -19 21 28.83095
 2018-Sep-19 06:06  m  02 21 23.147824 -19 21 32.99623
 2018-Sep-19 06:07  m  02 21 23.477306 -19 21 37.15919
 2018-Sep-19 06:08  m  02 21 23.806636 -19 21 41.31983
 2018-Sep-19 06:09  m  02 21 24.135815 -19 21 45.47814
 2018-Sep-19 06:10  m  02 21 24.464845 -19 21 49.63413
 2018-Sep-19 06:11  m  02 21 24.793727 -19 21 53.78780
 2018-Sep-19 06:12  m  02 21 25.122464 -19 21 57.93914
 2018-Sep-19 06:13  m  02 21 25.451056 -19 22 02.08815
 2018-Sep-19 06:14  m  02 21 25.779504 -19 22 06.23483
 2018-Sep-19 06:15  m  02 21 26.107812 -19 22 10.37918
 2018-Sep-19 06:16  m  02 21 26.435979 -19 22 14.52120
 2018-Sep-19 06:17  m  02 21 26.764007 -19 22 18.66088
 2018-Sep-19 06:18  m  02 21 27.091899 -19 22 22.79822
 2018-Sep-19 06:19  m  02 21 27.419655 -19 22 26.93323
 2018-Sep-19 06:20  m  02 21 27.747277 -19 22 31.06590
 2018-Sep-19 06:21  m  02 21 28.074766 -19 22 35.19622
 2018-Sep-19 06:22  m  02 21 28.402125 -19 22 39.32421
 2018-Sep-19 06:23  m  02 21 28.729354 -19 22 43.44985
 2018-Sep-19 06:24  m  02 21 29.056455 -19 22 47.57315
 2018-Sep-19 06:25  m  02 21 29.383430 -19 22 51.69410
 2018-Sep-19 06:26  m  02 21 29.710280 -19 22 55.81270
 2018-Sep-19 06:27  m  02 21 30.037007 -19 22 59.92896
 2018-Sep-19 06:28  m  02 21 30.363611 -19 23 04.04287
 2018-Sep-19 06:29  m  02 21 30.690096 -19 23 08.15443
 2018-Sep-19 06:30  m  02 21 31.016461 -19 23 12.26363
 2018-Sep-19 06:31  m  02 21 31.342710 -19 23 16.37048
 2018-Sep-19 06:32  m  02 21 31.668842 -19 23 20.47498
 2018-Sep-19 06:33  m  02 21 31.994861 -19 23 24.57713
 2018-Sep-19 06:34  m  02 21 32.320766 -19 23 28.67692
 2018-Sep-19 06:35  m  02 21 32.646561 -19 23 32.77435
 2018-Sep-19 06:36  m  02 21 32.972246 -19 23 36.86942
 2018-Sep-19 06:37  m  02 21 33.297822 -19 23 40.96214
 2018-Sep-19 06:38  m  02 21 33.623292 -19 23 45.05250
 2018-Sep-19 06:39  m  02 21 33.948657 -19 23 49.14049
 2018-Sep-19 06:40  m  02 21 34.273919 -19 23 53.22613
 2018-Sep-19 06:41  m  02 21 34.599078 -19 23 57.30940
 2018-Sep-19 06:42  m  02 21 34.924138 -19 24 01.39032
 2018-Sep-19 06:43  m  02 21 35.249098 -19 24 05.46887
 2018-Sep-19 06:44  m  02 21 35.573960 -19 24 09.54505
 2018-Sep-19 06:45  m  02 21 35.898727 -19 24 13.61887
 2018-Sep-19 06:46  m  02 21 36.223400 -19 24 17.69033
 2018-Sep-19 06:47  m  02 21 36.547980 -19 24 21.75942
 2018-Sep-19 06:48  m  02 21 36.872468 -19 24 25.82614
 2018-Sep-19 06:49  m  02 21 37.196867 -19 24 29.89050
 2018-Sep-19 06:50  m  02 21 37.521178 -19 24 33.95249
 2018-Sep-19 06:51  m  02 21 37.845402 -19 24 38.01212
 2018-Sep-19 06:52  m  02 21 38.169540 -19 24 42.06937
 2018-Sep-19 06:53  m  02 21 38.493596 -19 24 46.12426
 2018-Sep-19 06:54  m  02 21 38.817569 -19 24 50.17678
 2018-Sep-19 06:55  m  02 21 39.141462 -19 24 54.22693
 2018-Sep-19 06:56  m  02 21 39.465275 -19 24 58.27471
